NORAD_CAT_ID,OBJECT_NAME,OBJECT_TYPE,EPOCH,MEAN_MOTION,ECCENTRICITY,INCLINATION,RA_OF_ASC_NODE,ARG_OF_PERICENTER,MEAN_ANOMALY,BSTAR,MEAN_MOTION_DOT,MEAN_MOTION_DDOT,TLE_LINE0,TLE_LINE1,TLE_LINE2,SEMIMAJOR_AXIS,PERIOD,APOGEE,PERIGEE,DECAYED
54206.0,STARLINK-5264,PAYLOAD,2024-07-29 08:42:42,15.08836817,0.0001567,53.2175,80.0623,88.3823,271.7349,0.00012795,1.749e-05,0.0,0 STARLINK-5264,1 54206U 22141BB  24211.36299356  .00001749  00000-0  12795-3 0  9998,2 54206  53.2175  80.0623 0001567  88.3823 271.7349 15.08836817 97671,6917.89,95.438,540.839,538.671,0.0
54206.0,STARLINK-5264,PAYLOAD,2024-07-29 21:25:47,15.08839086,0.0001438,53.217,77.6819,92.2054,267.9103,0.00011531,1.548e-05,0.0,0 STARLINK-5264,1 54206U 22141BB  24211.89291367  .00001548  00000-0  11531-3 0  9994,2 54206  53.2170  77.6819 0001438  92.2054 267.9103 15.08839086 97757,6917.883,95.438,540.743,538.753,0.0
54206.0,STARLINK-5264,PAYLOAD,2024-07-30 14:55:02,15.08842794,0.0001563,53.2172,74.4127,89.1641,270.953,6.6329e-05,7.68e-06,0.0,0 STARLINK-5264,1 54206U 22141BB  24212.62155307  .00000768  00000-0  66329-4 0  9998,2 54206  53.2172  74.4127 0001563  89.1641 270.9530 15.08842794 97862,6917.872,95.437,540.818,538.656,0.0
54206.0,STARLINK-5264,PAYLOAD,2024-07-30 21:16:34,15.08851706,0.0001698,53.2173,73.2236,90.7376,269.3811,0.000113,1.511e-05,0.0,0 STARLINK-5264,1 54206U 22141BB  24212.88650557  .00001511  00000-0  11300-3 0  9998,2 54206  53.2173  73.2236 0001698  90.7376 269.3811 15.08851706 98131,6917.845,95.437,540.884,538.535,0.0
54206.0,STARLINK-5264,PAYLOAD,2024-07-31 21:07:22,15.08838566,0.0001259,53.2162,68.7621,98.3224,261.7911,-3.2683e-05,-8.08e-06,0.0,0 STARLINK-5264,1 54206U 22141BB  24213.88011687 -.00000808  00000-0 -32683-4 0  9992,2 54206  53.2162  68.7621 0001259  98.3224 261.7911 15.08838566 98287,6917.885,95.438,540.621,538.879,0.0
54206.0,STARLINK-5264,PAYLOAD,2024-08-01 19:22:45,15.08859675,0.0001821,53.2167,64.5959,100.3631,259.7566,-0.00012953,-2.35e-05,0.0,0 STARLINK-5264,1 54206U 22141BB  24214.80746563 -.00002350  00000-0 -12953-3 0  9994,2 54206  53.2167  64.5959 0001821 100.3631 259.7566 15.08859675 98424,6917.82,95.436,540.945,538.426,0.0
54206.0,STARLINK-5264,PAYLOAD,2024-08-02 12:52:00,15.08838749,0.0001245,53.2174,61.3312,106.0981,254.0149,8.239e-05,1.024e-05,0.0,0 STARLINK-5264,1 54206U 22141BB  24215.53611340  .00001024  00000-0  82390-4 0  9997,2 54206  53.2174  61.3312 0001245 106.0981 254.0149 15.08838749 98537,6917.884,95.438,540.61,538.888,0.0
54206.0,STARLINK-5264,PAYLOAD,2024-08-02 20:48:55,15.08838031,0.0001269,53.2167,59.8411,95.4428,264.6709,8.6898e-05,1.095e-05,0.0,0 STARLINK-5264,1 54206U 22141BB  24215.86731477  .00001095  00000-0  86898-4 0  9992,2 54206  53.2167  59.8411 0001269  95.4428 264.6709 15.08838031 98357,6917.886,95.438,540.629,538.874,0.0
54206.0,STARLINK-5264,PAYLOAD,2024-08-03 06:21:15,15.08832857,0.0001631,53.2171,58.057,94.9198,265.198,-1.9977e-06,-3.2e-06,0.0,0 STARLINK-5264,1 54206U 22141BB  24216.26476331 -.00000320  00000-0 -19977-5 0  9999,2 54206  53.2171  58.0570 0001631  94.9198 265.1980 15.08832857 98649,6917.902,95.438,540.896,538.639,0.0
54206.0,STARLINK-5264,PAYLOAD,2024-08-03 20:39:41,15.08860064,0.0001172,53.2168,55.3808,89.9909,270.1217,9.008e-05,1.147e-05,0.0,0 STARLINK-5264,1 54206U 22141BB  24216.86090143  .00001147  00000-0  90080-4 0  9997,2 54206  53.2168  55.3808 0001172  89.9909 270.1217 15.08860064 98733,6917.819,95.436,540.495,538.873,0.0
54206.0,STARLINK-5264,PAYLOAD,2024-08-03 22:15:04,15.08861169,0.0001297,53.2174,55.0836,99.9926,260.1213,0.00010064,1.315e-05,0.0,0 STARLINK-5264,1 54206U 22141BB  24216.92713953  .00001315  00000-0  10064-3 0  9995,2 54206  53.2174  55.0836 0001297  99.9926 260.1213 15.08861169 98514,6917.816,95.436,540.578,538.783,0.0
54206.0,STARLINK-5264,PAYLOAD,2024-08-04 06:12:00,15.08854044,0.000143,53.2163,53.5958,66.4374,293.6769,0.00016166,2.287e-05,0.0,0 STARLINK-5264,1 54206U 22141BB  24217.25834150  .00002287  00000-0  16166-3 0  9993,2 54206  53.2163  53.5958 0001430  66.4374 293.6769 15.08854044 98796,6917.837,95.437,540.692,538.713,0.0
54206.0,STARLINK-5264,PAYLOAD,2024-08-04 20:30:30,15.088293,0.0001464,53.2168,50.9191,105.9096,254.2058,-2.3375e-05,-6.6e-06,0.0,0 STARLINK-5264,1 54206U 22141BB  24217.85451924 -.00000660  00000-0 -23375-4 0  9999,2 54206  53.2168  50.9191 0001464 105.9096 254.2058 15.08829300 98889,6917.913,95.438,540.791,538.765,0.0
54206.0,STARLINK-5264,PAYLOAD,2024-08-04 22:05:53,15.0882988,0.0001493,53.2169,50.6212,105.0241,255.0916,-2.5586e-05,-6.95e-06,0.0,0 STARLINK-5264,1 54206U 22141BB  24217.92075924 -.00000695  00000-0 -25586-4 0  9993,2 54206  53.2169  50.6212 0001493 105.0241 255.0916 15.08829880 98667,6917.911,95.438,540.809,538.743,0.0
54206.0,STARLINK-5264,PAYLOAD,2024-08-05 20:21:17,15.08842981,0.0001406,53.2175,46.4597,97.1792,262.936,-0.00010667,-1.985e-05,0.0,0 STARLINK-5264,1 54206U 22141BB  24218.84811920 -.00001985  00000-0 -10667-3 0  9995,2 54206  53.2175  46.4597 0001406  97.1792 262.9360 15.08842981 99038,6917.871,95.437,540.709,538.764,0.0
54206.0,STARLINK-5264,PAYLOAD,2024-08-06 12:15:08,15.08834756,0.0001365,53.2171,43.4863,92.0515,268.0634,1.9667e-05,2.5e-07,0.0,0 STARLINK-5264,1 54206U 22141BB  24219.51052077  .00000025  00000-0  19667-4 0  9992,2 54206  53.2171  43.4863 0001365  92.0515 268.0634 15.08834756 98905,6917.896,95.438,540.706,538.817,0.0
54206.0,STARLINK-5264,PAYLOAD,2024-08-06 18:36:41,15.0883689,0.0001222,53.2179,42.2946,98.5002,261.6129,4.0278e-05,3.53e-06,0.0,0 STARLINK-5264,1 54206U 22141BB  24219.77547913  .00000353  00000-0  40278-4 0  9994,2 54206  53.2179  42.2946 0001222  98.5002 261.6129 15.08836890 98949,6917.89,95.438,540.6,538.91,0.0
54206.0,STARLINK-5264,PAYLOAD,2024-08-07 12:05:53,15.08865802,0.0001141,53.2182,39.0275,74.1873,285.9245,0.00027498,4.094e-05,0.0,0 STARLINK-5264,1 54206U 22141BB  24220.50409179  .00004094  00000-0  27498-3 0  9992,2 54206  53.2182  39.0275 0001141  74.1873 285.9245 15.08865802 99289,6917.802,95.436,540.456,538.877,0.0
54206.0,STARLINK-5264,PAYLOAD,2024-08-07 18:27:29,15.08823352,0.0001594,53.2179,37.8381,63.3435,296.772,-9.1815e-05,-1.748e-05,0.0,0 STARLINK-5264,1 54206U 22141BB  24220.76908745 -.00001748  00000-0 -91815-4 0  9993,2 54206  53.2179  37.8381 0001594  63.3435 296.7720 15.08823352 99322,6917.931,95.439,540.899,538.694,0.0
54206.0,STARLINK-5264,PAYLOAD,2024-08-08 11:56:43,15.08824706,9.74e-05,53.2183,34.5619,95.1654,264.9449,6.8102e-05,7.96e-06,0.0,0 STARLINK-5264,1 54206U 22141BB  24221.49772482  .00000796  00000-0  68102-4 0  9994,2 54206  53.2183  34.5619 0000974  95.1654 264.9449 15.08824706 99208,6917.927,95.439,540.466,539.118,0.0
54206.0,STARLINK-5264,PAYLOAD,2024-08-08 18:18:15,15.08847185,0.0001409,53.2186,33.3763,97.5925,262.5227,7.9779e-05,9.82e-06,0.0,0 STARLINK-5264,1 54206U 22141BB  24221.76267521  .00000982  00000-0  79779-4 0  9996,2 54206  53.2186  33.3763 0001409  97.5925 262.5227 15.08847185 99472,6917.858,95.437,540.698,538.749,0.0
54206.0,STARLINK-5264,PAYLOAD,2024-08-09 11:47:30,15.08824231,0.0001296,53.2182,30.1004,110.8648,249.2483,0.00014078,1.952e-05,0.0,0 STARLINK-5264,1 54206U 22141BB  24222.49132214  .00001952  00000-0  14078-3 0  9995,2 54206  53.2182  30.1004 0001296 110.8648 249.2483 15.08824231 99581,6917.929,95.439,540.69,538.897,0.0
54206.0,STARLINK-5264,PAYLOAD,2024-08-09 18:09:02,15.08836641,0.0001229,53.2183,28.9172,87.3696,272.7436,0.0003081,4.618e-05,0.0,0 STARLINK-5264,1 54206U 22141BB  24222.75627652  .00004618  00000-0  30810-3 0  9993,2 54206  53.2183  28.9172 0001229  87.3696 272.7436 15.08836641 99622,6917.891,95.438,540.606,538.905,0.0
54206.0,STARLINK-5264,PAYLOAD,2024-08-10 11:38:17,15.08834868,0.000133,53.2184,25.6431,91.9945,268.1199,-3.0969e-06,-3.37e-06,0.0,0 STARLINK-5264,1 54206U 22141BB  24223.48492424 -.00000337  00000-0 -30969-5 0  9994,2 54206  53.2184  25.6431 0001330  91.9945 268.1199 15.08834868 99732,6917.896,95.438,540.681,538.841,0.0
54206.0,STARLINK-5264,PAYLOAD,2024-08-10 14:49:03,15.08837309,0.0001453,53.2185,25.0529,100.0417,260.074,7.2374e-05,8.64e-06,0.0,0 STARLINK-5264,1 54206U 22141BB  24223.61740478  .00000864  00000-0  72374-4 0  9992,2 54206  53.2185  25.0529 0001453 100.0417 260.0740 15.08837309 99520,6917.889,95.438,540.759,538.748,0.0
54206.0,STARLINK-5264,PAYLOAD,2024-08-10 17:59:49,15.08840938,0.0001415,53.2186,24.4542,95.8394,264.276,9.9475e-05,1.296e-05,0.0,0 STARLINK-5264,1 54206U 22141BB  24223.74988241  .00001296  00000-0  99475-4 0  9999,2 54206  53.2186  24.4542 0001415  95.8394 264.2760 15.08840938 99544,6917.878,95.437,540.721,538.764,0.0
54206.0,STARLINK-5264,PAYLOAD,2024-08-11 19:26:00,15.08847361,0.0001252,53.2187,19.6953,94.1715,265.942,0.00020326,2.949e-05,0.0,0 STARLINK-5264,1 54206U 22141BB  24224.80972295  .00002949  00000-0  20326-3 0  9993,2 54206  53.2187  19.6953 0001252  94.1715 265.9420 15.08847361 99936,6917.858,95.437,540.589,538.857,0.0
54206.0,STARLINK-5264,PAYLOAD,2024-08-11 21:01:23,15.08844574,0.0001241,53.2185,19.3947,77.7762,282.3369,0.00031567,4.74e-05,0.0,0 STARLINK-5264,1 54206U 22141BB  24224.87596431  .00004740  00000-0  31567-3 0  9994,2 54206  53.2185  19.3947 0001241  77.7762 282.3369 15.08844574 99715,6917.866,95.437,540.59,538.873,0.0
54206.0,STARLINK-5264,PAYLOAD,2024-08-12 11:19:51,15.08848775,0.0001379,53.2175,16.7259,98.2917,261.8232,0.00025494,3.773e-05,0.0,0 STARLINK-5264,1 54206U 22141BB  24225.47212304  .00003773  00000-0  25494-3 0  9992,2 54206  53.2175  16.7259 0001379  98.2917 261.8232 15.08848775 99801,6917.854,95.437,540.673,538.765,0.0
54206.0,STARLINK-5264,PAYLOAD,2024-08-12 19:16:45,15.08888699,0.0001392,53.218,15.2356,104.8873,255.2273,0.00090687,0.00014193,0.0,0 STARLINK-5264,1 54206U 22141BB  24225.80330211  .00014193  00000-0  90687-3 0  9991,2 54206  53.2180  15.2356 0001392 104.8873 255.2273 15.08888699100083,6917.732,95.434,540.559,538.634,0.0
